start=new Date('2022-09-03T00:00:00.000Z').valueOf();
sats=[{"ECCENTRICITY":"0.00015700","CLASSIFICATION_TYPE":"U","TLE_LINE2":"2 48564  53.0552 134.8765 0001570  87.3521 272.7647 15.06403031 71705","MEAN_MOTION_DOT":"0.00000933","MEAN_ELEMENT_THEORY":"SGP4","NORAD_CAT_ID":"48564","EPOCH":"2022-09-02T21:08:18.203136","EPHEMERIS_TYPE":"0","FILE":"3555599","SITE":"AFETR","MEAN_MOTION":"15.06403031","TLE_LINE1":"1 48564U 21041M   22245.88076624  .00000933  00000-0  81535-4 0  9992","REF_FRAME":"TEME","CENTER_NAME":"EARTH","COUNTRY_CODE":"US","DECAY_DATE":null,"RA_OF_ASC_NODE":"134.8765","MEAN_ANOMALY":"272.7647","GP_ID":"211588249","OBJECT_TYPE":"PAYLOAD","REV_AT_EPOCH":"7170","PERIAPSIS":"546.117","INCLINATION":"53.0552","OBJECT_NAME":"STARLINK-2190","OBJECT_ID":"2021-041M","ARG_OF_PERICENTER":"87.3521","PERIOD":"95.592","TIME_SYSTEM":"UTC","APOAPSIS":"548.292","RCS_SIZE":"LARGE","BSTAR":"0.00008153500000","SEMIMAJOR_AXIS":"6925.339","ELEMENT_SET_NO":"999","LAUNCH_DATE":"2021-05-15","MEAN_MOTION_DDOT":"0.0000000000000"},{"MEAN_MOTION_DOT":"0.00001094","NORAD_CAT_ID":"48565","EPOCH":"2022-09-02T21:01:38.593632","MEAN_ELEMENT_THEORY":"SGP4","CLASSIFICATION_TYPE":"U","ECCENTRICITY":"0.00013970","TLE_LINE2":"2 48565  53.0547 134.8743 0001397  79.9270 280.1876 15.06404330 71701","FILE":"3555599","EPHEMERIS_TYPE":"0","SITE":"AFETR","REF_FRAME":"TEME","TLE_LINE1":"1 48565U 21041N   22245.87614113  .00001094  00000-0  92345-4 0  9993","CENTER_NAME":"EARTH","MEAN_MOTION":"15.06404330","REV_AT_EPOCH":"7170","PERIAPSIS":"546.233","OBJECT_TYPE":"PAYLOAD","GP_ID":"211589500","COUNTRY_CODE":"US","MEAN_ANOMALY":"280.1876","DECAY_DATE":null,"RA_OF_ASC_NODE":"134.8743","OBJECT_ID":"2021-041N","OBJECT_NAME":"STARLINK-2191","INCLINATION":"53.0547","TIME_SYSTEM":"UTC","APOAPSIS":"548.168","PERIOD":"95.592","RCS_SIZE":"LARGE","ARG_OF_PERICENTER":"79.9270","BSTAR":"0.00009234500000","SEMIMAJOR_AXIS":"6925.335","MEAN_MOTION_DDOT":"0.0000000000000","ELEMENT_SET_NO":"999","LAUNCH_DATE":"2021-05-15"},{"BSTAR":"0.00000966090000","SEMIMAJOR_AXIS":"6925.384","LAUNCH_DATE":"2021-05-15","ELEMENT_SET_NO":"999","MEAN_MOTION_DDOT":"0.0000000000000","INCLINATION":"53.0547","OBJECT_NAME":"STARLINK-2214","OBJECT_ID":"2021-041P","ARG_OF_PERICENTER":"61.1956","PERIOD":"95.593","APOAPSIS":"548.340","TIME_SYSTEM":"UTC","RCS_SIZE":"MEDIUM","MEAN_MOTION":"15.06388429","REF_FRAME":"TEME","TLE_LINE1":"1 48566U 21041P   22245.43385316 -.00000138  00000-0  96609-5 0  9993","CENTER_NAME":"EARTH","COUNTRY_CODE":"US","RA_OF_ASC_NODE":"146.8383","DECAY_DATE":null,"MEAN_ANOMALY":"298.9191","GP_ID":"211555460","OBJECT_TYPE":"PAYLOAD","REV_AT_EPOCH":"7149","PERIAPSIS":"546.158","ECCENTRICITY":"0.00015750","CLASSIFICATION_TYPE":"U","TLE_LINE2":"2 48566  53.0547 146.8383 0001575  61.1956 298.9191 15.06388429 71490","MEAN_MOTION_DOT":"-0.00000138","NORAD_CAT_ID":"48566","MEAN_ELEMENT_THEORY":"SGP4","EPOCH":"2022-09-02T10:24:44.913024","EPHEMERIS_TYPE":"0","FILE":"3555279","SITE":"AFETR"},{"REF_FRAME":"TEME","TLE_LINE1":"1 48567U 21041Q   22245.84667954  .00000509  00000-0  53071-4 0  9996","CENTER_NAME":"EARTH","MEAN_MOTION":"15.06399245","GP_ID":"211588500","OBJECT_TYPE":"PAYLOAD","PERIAPSIS":"546.084","REV_AT_EPOCH":"7155","COUNTRY_CODE":"US","RA_OF_ASC_NODE":"145.0238","DECAY_DATE":null,"MEAN_ANOMALY":"269.8369","MEAN_MOTION_DOT":"0.00000509","MEAN_ELEMENT_THEORY":"SGP4","NORAD_CAT_ID":"48567","EPOCH":"2022-09-02T20:19:13.112256","ECCENTRICITY":"0.00016350","CLASSIFICATION_TYPE":"U","TLE_LINE2":"2 48567  53.0549 145.0238 0001635  90.2807 269.8369 15.06399245 71557","EPHEMERIS_TYPE":"0","FILE":"3555599","SITE":"AFETR","BSTAR":"0.00005307100000","SEMIMAJOR_AXIS":"6925.351","MEAN_MOTION_DDOT":"0.0000000000000","ELEMENT_SET_NO":"999","LAUNCH_DATE":"2021-05-15","OBJECT_NAME":"STARLINK-2215","OBJECT_ID":"2021-041Q","INCLINATION":"53.0549","PERIOD":"95.592","TIME_SYSTEM":"UTC","APOAPSIS":"548.348","RCS_SIZE":"LARGE","ARG_OF_PERICENTER":"90.2807"},{"MEAN_MOTION":"15.06401953","REF_FRAME":"TEME","TLE_LINE1":"1 48568U 21041R   22245.85864879 -.00003195  00000-0 -19569-3 0  9992","CENTER_NAME":"EARTH","COUNTRY_CODE":"US","DECAY_DATE":null,"RA_OF_ASC_NODE":"134.9628","MEAN_ANOMALY":"279.1556","GP_ID":"211588749","OBJECT_TYPE":"PAYLOAD","REV_AT_EPOCH":"7169","PERIAPSIS":"546.183","ECCENTRICITY":"0.00014790","CLASSIFICATION_TYPE":"U","TLE_LINE2":"2 48568  53.0547 134.9628 0001479  80.9600 279.1556 15.06401953 71696","MEAN_MOTION_DOT":"-0.00003195","MEAN_ELEMENT_THEORY":"SGP4","EPOCH":"2022-09-02T20:36:27.255456","NORAD_CAT_ID":"48568","EPHEMERIS_TYPE":"0","FILE":"3555599","SITE":"AFETR","BSTAR":"-0.00019569000000","SEMIMAJOR_AXIS":"6925.343","ELEMENT_SET_NO":"999","LAUNCH_DATE":"2021-05-15","MEAN_MOTION_DDOT":"0.0000000000000","INCLINATION":"53.0547","OBJECT_NAME":"STARLINK-2217","OBJECT_ID":"2021-041R","ARG_OF_PERICENTER":"80.9600","PERIOD":"95.592","APOAPSIS":"548.232","TIME_SYSTEM":"UTC","RCS_SIZE":"LARGE"},{"INCLINATION":"53.0523","OBJECT_NAME":"STARLINK-2219","OBJECT_ID":"2021-041S","ARG_OF_PERICENTER":"85.5668","RCS_SIZE":"LARGE","PERIOD":"95.592","TIME_SYSTEM":"UTC","APOAPSIS":"548.237","SEMIMAJOR_AXIS":"6925.327","BSTAR":"0.00022360000000","LAUNCH_DATE":"2021-05-15","ELEMENT_SET_NO":"999","MEAN_MOTION_DDOT":"0.0000000000000","TLE_LINE2":"2 48569  53.0523 134.8433 0001508  85.5668 274.5493 15.06406898 71706","ECCENTRICITY":"0.00015080","CLASSIFICATION_TYPE":"U","EPOCH":"2022-09-02T21:13:37.083936","MEAN_ELEMENT_THEORY":"SGP4","NORAD_CAT_ID":"48569","MEAN_MOTION_DOT":"0.00003051","SITE":"AFETR","EPHEMERIS_TYPE":"0","FILE":"3555599","MEAN_MOTION":"15.06406898","CENTER_NAME":"EARTH","REF_FRAME":"TEME","TLE_LINE1":"1 48569U 21041S   22245.88445699  .00003051  00000-0  22360-3 0  9993","DECAY_DATE":null,"RA_OF_ASC_NODE":"134.8433","MEAN_ANOMALY":"274.5493","COUNTRY_CODE":"US","OBJECT_TYPE":"PAYLOAD","GP_ID":"211589001","PERIAPSIS":"546.148","REV_AT_EPOCH":"7170"},{"LAUNCH_DATE":"2021-05-15","ELEMENT_SET_NO":"999","MEAN_MOTION_DDOT":"0.0000000000000","SEMIMAJOR_AXIS":"6925.376","BSTAR":"0.00028850000000","ARG_OF_PERICENTER":"82.5310","RCS_SIZE":"LARGE","APOAPSIS":"548.475","TIME_SYSTEM":"UTC","PERIOD":"95.593","INCLINATION":"53.0549","OBJECT_NAME":"STARLINK-2220","OBJECT_ID":"2021-041T","MEAN_ANOMALY":"277.5881","RA_OF_ASC_NODE":"144.9068","DECAY_DATE":null,"COUNTRY_CODE":"US","PERIAPSIS":"546.007","REV_AT_EPOCH":"7155","OBJECT_TYPE":"PAYLOAD","GP_ID":"211589240","MEAN_MOTION":"15.06391061","CENTER_NAME":"EARTH","TLE_LINE1":"1 48570U 21041T   22245.87248586  .00004017  00000-0  28850-3 0  9993","REF_FRAME":"TEME","SITE":"AFETR","FILE":"3555599","EPHEMERIS_TYPE":"0","TLE_LINE2":"2 48570  53.0549 144.9068 0001782  82.5310 277.5881 15.06391061 71559","CLASSIFICATION_TYPE":"U","ECCENTRICITY":"0.00017820","EPOCH":"2022-09-02T20:56:22.778304","MEAN_ELEMENT_THEORY":"SGP4","NORAD_CAT_ID":"48570","MEAN_MOTION_DOT":"0.00004017"},{"APOAPSIS":"548.303","TIME_SYSTEM":"UTC","PERIOD":"95.592","RCS_SIZE":"LARGE","ARG_OF_PERICENTER":"78.9628","OBJECT_NAME":"STARLINK-2221","OBJECT_ID":"2021-041U","INCLINATION":"53.0561","MEAN_MOTION_DDOT":"0.0000000000000","LAUNCH_DATE":"2021-05-15","ELEMENT_SET_NO":"999","BSTAR":"0.00003228500000","SEMIMAJOR_AXIS":"6925.358","FILE":"3555599","EPHEMERIS_TYPE":"0","SITE":"AFETR","MEAN_MOTION_DOT":"0.00000199","EPOCH":"2022-09-02T21:06:58.824864","MEAN_ELEMENT_THEORY":"SGP4","NORAD_CAT_ID":"48571","CLASSIFICATION_TYPE":"U","ECCENTRICITY":"0.00015600","TLE_LINE2":"2 48571  53.0561 144.8802 0001560  78.9628 281.1537 15.06396929 71562","REV_AT_EPOCH":"7156","PERIAPSIS":"546.143","OBJECT_TYPE":"PAYLOAD","GP_ID":"211588001","COUNTRY_CODE":"US","MEAN_ANOMALY":"281.1537","RA_OF_ASC_NODE":"144.8802","DECAY_DATE":null,"TLE_LINE1":"1 48571U 21041U   22245.87984751  .00000199  00000-0  32285-4 0  9990","REF_FRAME":"TEME","CENTER_NAME":"EARTH","MEAN_MOTION":"15.06396929"},{"MEAN_MOTION":"15.06399970","REF_FRAME":"TEME","TLE_LINE1":"1 48572U 21041V   22245.87616222  .00000575  00000-0  57520-4 0  9993","CENTER_NAME":"EARTH","COUNTRY_CODE":"US","MEAN_ANOMALY":"276.7690","RA_OF_ASC_NODE":"144.8822","DECAY_DATE":null,"REV_AT_EPOCH":"7156","PERIAPSIS":"546.270","OBJECT_TYPE":"PAYLOAD","GP_ID":"211588250","CLASSIFICATION_TYPE":"U","ECCENTRICITY":"0.00013630","TLE_LINE2":"2 48572  53.0544 144.8822 0001363  83.3454 276.7690 15.06399970 71563","MEAN_MOTION_DOT":"0.00000575","EPOCH":"2022-09-02T21:01:40.415808","MEAN_ELEMENT_THEORY":"SGP4","NORAD_CAT_ID":"48572","FILE":"3555599","EPHEMERIS_TYPE":"0","SITE":"AFETR","BSTAR":"0.00005752000000","SEMIMAJOR_AXIS":"6925.349","LAUNCH_DATE":"2021-05-15","ELEMENT_SET_NO":"999","MEAN_MOTION_DDOT":"0.0000000000000","INCLINATION":"53.0544","OBJECT_ID":"2021-041V","OBJECT_NAME":"STARLINK-2222","ARG_OF_PERICENTER":"83.3454","APOAPSIS":"548.158","TIME_SYSTEM":"UTC","PERIOD":"95.592","RCS_SIZE":"LARGE"},{"GP_ID":"211589501","OBJECT_TYPE":"PAYLOAD","REV_AT_EPOCH":"7169","PERIAPSIS":"546.363","COUNTRY_CODE":"US","DECAY_DATE":null,"RA_OF_ASC_NODE":"134.9680","MEAN_ANOMALY":"281.0584","TLE_LINE1":"1 48573U 21041W   22245.85496799  .00000749  00000-0  69168-4 0  9991","REF_FRAME":"TEME","CENTER_NAME":"EARTH","MEAN_MOTION":"15.06391751","EPHEMERIS_TYPE":"0","FILE":"3555599","SITE":"AFETR","MEAN_MOTION_DOT":"0.00000749","NORAD_CAT_ID":"48573","EPOCH":"2022-09-02T20:31:09.234336","MEAN_ELEMENT_THEORY":"SGP4","ECCENTRICITY":"0.00012650","CLASSIFICATION_TYPE":"U","TLE_LINE2":"2 48573  53.0549 134.9680 0001265  79.0547 281.0584 15.06391751 71691","MEAN_MOTION_DDOT":"0.0000000000000","ELEMENT_SET_NO":"999","LAUNCH_DATE":"2021-05-15","BSTAR":"0.00006916800000","SEMIMAJOR_AXIS":"6925.374","PERIOD":"95.593","APOAPSIS":"548.115","TIME_SYSTEM":"UTC","RCS_SIZE":"LARGE","ARG_OF_PERICENTER":"79.0547","OBJECT_NAME":"STARLINK-2224","OBJECT_ID":"2021-041W","INCLINATION":"53.0549"}];
